{
    "links": {
        "self": "http://www.neowsapp.com/rest/v1/neo/3698489?api_key=iIulBulltgU6a56xZRHN4H3l9WmuAYTsLGpBGhQ2"
    },
    "id": "3698489",
    "neo_reference_id": "3698489",
    "name": "(2014 HK196)",
    "designation": "2014 HK196",
    "nasa_jpl_url": "http://ssd.jpl.nasa.gov/sbdb.cgi?sstr=3698489",
    "absolute_magnitude_h": 26.4,
    "estimated_diameter": {
        "kilometers": {
            "estimated_diameter_min": 0.0139493823,
            "estimated_diameter_max": 0.0311917671
        },
        "meters": {
            "estimated_diameter_min": 13.9493822934,
            "estimated_diameter_max": 31.1917670523
        },
        "miles": {
            "estimated_diameter_min": 0.0086677416,
            "estimated_diameter_max": 0.0193816595
        },
        "feet": {
            "estimated_diameter_min": 45.7656914036,
            "estimated_diameter_max": 102.3351970157
        }
    },
    "is_potentially_hazardous_asteroid": false,
    "close_approach_data": [
        {
            "close_approach_date": "2014-03-22",
            "close_approach_date_full": "2014-Mar-22 02:56",
            "epoch_date_close_approach": 1395456960000,
            "relative_velocity": {
                "kilometers_per_second": "7.7750552733",
                "kilometers_per_hour": "27990.198983908",
                "miles_per_hour": "17392.0211408622"
            },
            "miss_distance": {
                "astronomical": "0.0500145146",
                "lunar": "19.4556461794",
                "kilometers": "7482064.853243902",
                "miles": "4649139.5163417676"
            },
            "orbiting_body": "Earth"
        }
    ],
    "orbital_data": {
        "orbit_id": "4",
        "orbit_determination_date": "2019-07-17 06:10:07",
        "first_observation_date": "2014-04-23",
        "last_observation_date": "2014-04-26",
        "data_arc_in_days": 3,
        "observations_used": 40,
        "orbit_uncertainty": "8",
        "minimum_orbit_intersection": ".0398265",
        "jupiter_tisserand_invariant": "3.496",
        "epoch_osculation": "2456771.5",
        "eccentricity": ".5338042210082693",
        "semi_major_axis": "2.161335709464231",
        "inclination": "2.756195330487564",
        "ascending_node_longitude": "214.4209926002982",
        "orbital_period": "1160.597872812659",
        "perihelion_distance": "1.007605584736322",
        "perihelion_argument": "304.4562243222065",
        "aphelion_distance": "3.31506583419214",
        "perihelion_time": "2456720.915662102296",
        "mean_anomaly": "15.69050062020312",
        "mean_motion": ".3101849559034221",
        "equinox": "J2000",
        "orbit_class": {
            "orbit_class_type": "APO",
            "orbit_class_description": "Near-Earth asteroid orbits which cross the Earth’s orbit similar to that of 1862 Apollo",
            "orbit_class_range": "a (semi-major axis) > 1.0 AU; q (perihelion) < 1.017 AU"
        }
    },
    "is_sentry_object": false
}